{
"type": "FeatureCollection",
"name": "trotzdem_nicht_Tempo30",
"crs": { "type": "name", "properties": { "name": "urn:ogc:def:crs:OGC:1.3:CRS84" } },
"features": [
{ "type": "Feature", "properties": { "A": "3", "Name": "Haus am Frankenberg", "Straße": "Am Frankenberg", "Nr.": "34", "PLZ": "21077", "Bezirk": "Harburg", "Nummer": "34" }, "geometry": { "type": "Point", "coordinates": [ 9.98145757437306, 53.43802815 ] } },
{ "type": "Feature", "properties": { "A": "1", "Name": "Kinderhaus HafenCity", "Straße": "Am Hannoverschen Bahnhof", "Nr.": "25", "PLZ": "20457", "Bezirk": "Hamburg-Mitte", "Nummer": "25" }, "geometry": { "type": "Point", "coordinates": [ 10.005707401991405, 53.542606303557449 ] } },
{ "type": "Feature", "properties": { "A": "2", "Name": "Freie Schule Hamburg e.V.", "Straße": "Am Veringhof", "Nr.": "9", "PLZ": "21107", "Bezirk": "Hamburg-Mitte", "Nummer": "9" }, "geometry": { "type": "Point", "coordinates": [ 9.9851689, 53.5138919 ] } },
{ "type": "Feature", "properties": { "A": "1", "Name": "KiTa Kinderzimmer ConventParc", "Straße": "Amelungstraße", "Nr.": "8", "PLZ": "20354", "Bezirk": "Hamburg-Mitte", "Nummer": "8" }, "geometry": { "type": "Point", "coordinates": [ 9.98575346020071, 53.552890487223699 ] } },
{ "type": "Feature", "properties": { "A": "2", "Name": "Friedrich-Robbe-Institut", "Straße": "Bärenallee", "Nr.": "15", "PLZ": "22041", "Bezirk": "Wandsbek", "Nummer": "15" }, "geometry": { "type": "Point", "coordinates": [ 10.0633920944697, 53.5696879 ] } },
{ "type": "Feature", "properties": { "A": "3", "Name": "Senioren-Pflegepension Bärenallee Dieter Wurm", "Straße": "Bärenallee", "Nr.": "19", "PLZ": "22041", "Bezirk": "Wandsbek", "Nummer": "19" }, "geometry": { "type": "Point", "coordinates": [ 10.063777079957401, 53.5697662 ] } },
{ "type": "Feature", "properties": { "A": "2", "Name": "Max-Brauer-Schule", "Straße": "Bei der Paul-Gerhardt-Kirche", "Nr.": "1", "PLZ": "22761", "Bezirk": "Altona", "Nummer": "1" }, "geometry": { "type": "Point", "coordinates": [ 9.92256212001676, 53.5609035 ] } },
{ "type": "Feature", "properties": { "A": "1", "Name": "KiTa Entengarten im Siemers'schen Hof", "Straße": "Bergstedter Markt", "Nr.": "1", "PLZ": "22395", "Bezirk": "Wandsbek", "Nummer": "1" }, "geometry": { "type": "Point", "coordinates": [ 10.124267236247601, 53.67075055 ] } },
{ "type": "Feature", "properties": { "A": "1", "Name": "Kinderhaus Volksdorf", "Straße": "Berner Heerweg", "Nr.": "512", "PLZ": "22159", "Bezirk": "Wandsbek", "Nummer": "512" }, "geometry": { "type": "Point", "coordinates": [ 10.1472162337038, 53.63427275 ] } },
{ "type": "Feature", "properties": { "A": "1", "Name": "Integrative Bewegungskindertagesstätte", "Straße": "Bertrand-Russell-Straße", "Nr.": "4", "PLZ": "22761", "Bezirk": "Altona", "Nummer": "4" }, "geometry": { "type": "Point", "coordinates": [ 9.8863328, 53.5759483 ] } },
{ "type": "Feature", "properties": { "A": "1", "Name": "KiTa Billstedt Zentrum", "Straße": "Billstedter Hauptstraße", "Nr.": "52", "PLZ": "22111", "Bezirk": "Hamburg-Mitte", "Nummer": "52" }, "geometry": { "type": "Point", "coordinates": [ 10.1025906975499, 53.5395641 ] } },
{ "type": "Feature", "properties": { "A": "1", "Name": "KiTa Sportini, Sport- und\nBewegungskindertagesstätte", "Straße": "Billwerder Billdeich", "Nr.": "609", "PLZ": "21033", "Bezirk": "Bergedorf", "Nummer": "609" }, "geometry": { "type": "Point", "coordinates": [ 10.1831592, 53.4966682 ] } },
{ "type": "Feature", "properties": { "A": "1", "Name": "KiTa Bissingstraße", "Straße": "Bissingstraße", "Nr.": "31", "PLZ": "21075", "Bezirk": "Harburg", "Nummer": "31" }, "geometry": { "type": "Point", "coordinates": [ 9.96490932912184, 53.46744995 ] } },
{ "type": "Feature", "properties": { "A": "1", "Name": "elbzwerge Kita Villa Lengemann", "Straße": "Blohmstraße", "Nr.": "22", "PLZ": "21079", "Bezirk": "Harburg", "Nummer": "22" }, "geometry": { "type": "Point", "coordinates": [ 9.981203107377389, 53.4664705 ] } },
{ "type": "Feature", "properties": { "A": "1", "Name": "KiTa Taka-Tuka-Land Hamburg", "Straße": "Blücherstraße", "Nr.": "11", "PLZ": "22767", "Bezirk": "Altona", "Nummer": "11" }, "geometry": { "type": "Point", "coordinates": [ 9.9482998, 53.5501416 ] } },
{ "type": "Feature", "properties": { "A": "1", "Name": "KiTa der Rudolf Steiner Schule Altona", "Straße": "Blücherstraße", "Nr.": "35", "PLZ": "22767", "Bezirk": "Altona", "Nummer": "35" }, "geometry": { "type": "Point", "coordinates": [ 9.947975024660661, 53.55046325 ] } },
{ "type": "Feature", "properties": { "A": "1", "Name": "KiGa Alsterkinder e.V.", "Straße": "Borsteler Bogen", "Nr.": "27", "PLZ": "22453", "Bezirk": "Hamburg-Nord", "Nummer": "27" }, "geometry": { "type": "Point", "coordinates": [ 9.97158241160715, 53.6119829 ] } },
{ "type": "Feature", "properties": { "A": "1", "Name": "KiTa Sternenkinder e.V.", "Straße": "Bostelbeker Damm", "Nr.": "2", "PLZ": "21079", "Bezirk": "Harburg", "Nummer": "2" }, "geometry": { "type": "Point", "coordinates": [ 9.936294719403103, 53.473724547453898 ] } },
{ "type": "Feature", "properties": { "A": "1", "Name": "Ev. KiTa Farmsen-Berne", "Straße": "Bramfelder Weg", "Nr.": "23a", "PLZ": "22159", "Bezirk": "Wandsbek", "Nummer": "23a" }, "geometry": { "type": "Point", "coordinates": [ 10.114613193234504, 53.607724238846906 ] } },
{ "type": "Feature", "properties": { "A": "1", "Name": "KiGa Waldorf Kindergarten Bergedorf", "Straße": "Brookkehre", "Nr.": "12", "PLZ": "21029", "Bezirk": "Bergedorf", "Nummer": "12" }, "geometry": { "type": "Point", "coordinates": [ 10.2198869022727, 53.48085195 ] } },
{ "type": "Feature", "properties": { "A": "1", "Name": "KiTa Ferckscher Hof", "Straße": "Buchenkamp", "Nr.": "10", "PLZ": "22359", "Bezirk": "Wandsbek", "Nummer": "10" }, "geometry": { "type": "Point", "coordinates": [ 10.1867667, 53.6466594 ] } },
{ "type": "Feature", "properties": { "A": "1", "Name": "KiTa Sonnenschein", "Straße": "Bullenhuser Damm", "Nr.": "92", "PLZ": "20539", "Bezirk": "Hamburg-Mitte", "Nummer": "92" }, "geometry": { "type": "Point", "coordinates": [ 10.0475484, 53.5420468 ] } },
{ "type": "Feature", "properties": { "A": "3", "Name": "Senator Ernst Weiß Haus für Sehbehinderte und\nBlinde", "Straße": "Bullenkoppel", "Nr.": "17", "PLZ": "22047", "Bezirk": "Wandsbek", "Nummer": "17" }, "geometry": { "type": "Point", "coordinates": [ 10.093867511033499, 53.59405545 ] } },
{ "type": "Feature", "properties": { "A": "1", "Name": "KiTa Cocori", "Straße": "Bundesstraße", "Nr.": "25", "PLZ": "20146", "Bezirk": "Eimsbüttel", "Nummer": "25" }, "geometry": { "type": "Point", "coordinates": [ 9.979575237291691, 53.565480815226842 ] } },
{ "type": "Feature", "properties": { "A": "1", "Name": "KiTa Kinderzimmer Valentinshof", "Straße": "Caffamacherreihe", "Nr.": "8", "PLZ": "20355", "Bezirk": "Hamburg-Mitte", "Nummer": "8" }, "geometry": { "type": "Point", "coordinates": [ 9.9845199, 53.5554253 ] } },
{ "type": "Feature", "properties": { "A": "1", "Name": "KiTa Schmusebacke 3", "Straße": "Curslacker Heerweg", "Nr.": "263", "PLZ": "21039", "Bezirk": "Bergedorf", "Nummer": "263" }, "geometry": { "type": "Point", "coordinates": [ 10.238683300400799, 53.47396965 ] } },
{ "type": "Feature", "properties": { "A": "1", "Name": "KiTa KMK Kinderzimmer Dorotheenstraße\nGmbH", "Straße": "Dorotheenstraße", "Nr.": "48", "PLZ": "22299", "Bezirk": "Hamburg-Nord", "Nummer": "48" }, "geometry": { "type": "Point", "coordinates": [ 10.0089932858951, 53.58234845 ] } },
{ "type": "Feature", "properties": { "A": "1", "Name": "KiTa Kinderland Lurup", "Straße": "Eckhoffplatz", "Nr.": "26", "PLZ": "22547", "Bezirk": "Altona", "Nummer": "26" }, "geometry": { "type": "Point", "coordinates": [ 9.873928958254879, 53.5917176 ] } },
{ "type": "Feature", "properties": { "A": "1", "Name": "KiTa Kinderkönigreich", "Straße": "Eidelstedter Weg", "Nr.": "75", "PLZ": "20255", "Bezirk": "Eimsbüttel", "Nummer": "75" }, "geometry": { "type": "Point", "coordinates": [ 9.9481378, 53.5821987 ] } },
{ "type": "Feature", "properties": { "A": "1", "Name": "KiTa Kinderhaus 4Zeiten", "Straße": "Eidelstedter Weg", "Nr.": "107", "PLZ": "20255", "Bezirk": "Eimsbüttel", "Nummer": "107" }, "geometry": { "type": "Point", "coordinates": [ 9.9437669, 53.5820934 ] } },
{ "type": "Feature", "properties": { "A": "1", "Name": "KiTa Bollerwagen", "Straße": "Eidelstedter Weg", "Nr.": "63", "PLZ": "20255", "Bezirk": "Eimsbüttel", "Nummer": "63" }, "geometry": { "type": "Point", "coordinates": [ 9.9494941, 53.5822598 ] } },
{ "type": "Feature", "properties": { "A": "1", "Name": "KiTa Krippe Wurzelkinder", "Straße": "Eimsbütteler Chaussee", "Nr.": "21", "PLZ": "20259", "Bezirk": "Eimsbüttel", "Nummer": "21" }, "geometry": { "type": "Point", "coordinates": [ 9.9569557, 53.5663359 ] } },
{ "type": "Feature", "properties": { "A": "1", "Name": "Ev. KiTa Christuskirche", "Straße": "Eimsbütteler Chaussee", "Nr.": "24", "PLZ": "20259", "Bezirk": "Eimsbüttel", "Nummer": "24" }, "geometry": { "type": "Point", "coordinates": [ 9.958902381257859, 53.5666858 ] } },
{ "type": "Feature", "properties": { "A": "1", "Name": "KiTa Zauberzeit²", "Straße": "Eimsbütteler Chaussee", "Nr.": "57", "PLZ": "20259", "Bezirk": "Eimsbüttel", "Nummer": "57" }, "geometry": { "type": "Point", "coordinates": [ 9.95575864957928, 53.56794245 ] } },
{ "type": "Feature", "properties": { "A": "1", "Name": "KiGa Lek sä in i Norden", "Straße": "Eimsbütteler Chaussee", "Nr.": "86", "PLZ": "20259", "Bezirk": "Eimsbüttel", "Nummer": "86" }, "geometry": { "type": "Point", "coordinates": [ 9.955785548257101, 53.56879935 ] } },
{ "type": "Feature", "properties": { "A": "1", "Name": "Integrationskindergarten Wurzelkinder", "Straße": "Eimsbütteler Chaussee", "Nr.": "28", "PLZ": "20259", "Bezirk": "Eimsbüttel", "Nummer": "28" }, "geometry": { "type": "Point", "coordinates": [ 9.9578891, 53.5671737 ] } },
{ "type": "Feature", "properties": { "A": "1", "Name": "KiTa Kinderhaus Elversweg", "Straße": "Elversweg", "Nr.": "6", "PLZ": "21037", "Bezirk": "Bergedorf", "Nummer": "6" }, "geometry": { "type": "Point", "coordinates": [ 10.0782381978215, 53.4734741 ] } },
{ "type": "Feature", "properties": { "A": "1", "Name": "KiTa Zauberzeit", "Straße": "Eppendorfer Weg", "Nr.": "12", "PLZ": "20259", "Bezirk": "Eimsbüttel", "Nummer": "12" }, "geometry": { "type": "Point", "coordinates": [ 9.95685977537484, 53.56869355 ] } },
{ "type": "Feature", "properties": { "A": "1", "Name": "KiTa Kinderperle", "Straße": "Eppendorfer Weg", "Nr.": "163", "PLZ": "20253", "Bezirk": "Eimsbüttel", "Nummer": "163" }, "geometry": { "type": "Point", "coordinates": [ 9.965276588483791, 53.579294 ] } },
{ "type": "Feature", "properties": { "A": "1", "Name": "KiTa Kinderkrippe 100 Blumen", "Straße": "Eppendorfer Weg", "Nr.": "185", "PLZ": "20253", "Bezirk": "Eimsbüttel", "Nummer": "185" }, "geometry": { "type": "Point", "coordinates": [ 9.967917814285711, 53.5804465 ] } },
{ "type": "Feature", "properties": { "A": "1", "Name": "KiTa Die Strolche", "Straße": "Eppendorfer Weg", "Nr.": "205", "PLZ": "20253", "Bezirk": "Eimsbüttel", "Nummer": "205" }, "geometry": { "type": "Point", "coordinates": [ 9.9699292, 53.5812966 ] } },
{ "type": "Feature", "properties": { "A": "1", "Name": "KiTa Stapellauf e.V.", "Straße": "Eppendorfer Weg", "Nr.": "213", "PLZ": "20253", "Bezirk": "Eimsbüttel", "Nummer": "213" }, "geometry": { "type": "Point", "coordinates": [ 9.969651284250331, 53.58196185 ] } },
{ "type": "Feature", "properties": { "A": "1", "Name": "KiTa Lernhafen", "Straße": "Eppendorfer Weg", "Nr.": "138a", "PLZ": "20253", "Bezirk": "Eimsbüttel", "Nummer": "138a" }, "geometry": { "type": "Point", "coordinates": [ 9.96393973037944, 53.577856816686527 ] } },
{ "type": "Feature", "properties": { "A": "1", "Name": "KiTa Kind und Kegel Eppendorfer Weg", "Straße": "Eppendorfer Weg", "Nr.": "234", "PLZ": "20251", "Bezirk": "Hamburg-Nord", "Nummer": "234" }, "geometry": { "type": "Point", "coordinates": [ 9.974774553654511, 53.5827036 ] } },
{ "type": "Feature", "properties": { "A": "1", "Name": "KiTa Schmuddelkinder", "Straße": "Eppendorfer Weg", "Nr.": "4", "PLZ": "20259", "Bezirk": "Eimsbüttel", "Nummer": "4" }, "geometry": { "type": "Point", "coordinates": [ 9.9566843, 53.5683536 ] } },
{ "type": "Feature", "properties": { "A": "1", "Name": "KiTa Kinderladen 100 Blumen", "Straße": "Eppendorfer Weg", "Nr.": "121", "PLZ": "20259", "Bezirk": "Eimsbüttel", "Nummer": "121" }, "geometry": { "type": "Point", "coordinates": [ 9.9623022, 53.575739 ] } },
{ "type": "Feature", "properties": { "A": "1", "Name": "KiTa Die Kobolde", "Straße": "Eschelsweg", "Nr.": "21", "PLZ": "22767", "Bezirk": "Altona", "Nummer": "21" }, "geometry": { "type": "Point", "coordinates": [ 9.9455335, 53.5504906 ] } },
{ "type": "Feature", "properties": { "A": "1", "Name": "KiTa Fabriciusstraße", "Straße": "Fabriciusstraße", "Nr.": "270", "PLZ": "22177", "Bezirk": "Wandsbek", "Nummer": "270" }, "geometry": { "type": "Point", "coordinates": [ 10.0725141679334, 53.61509205 ] } },
{ "type": "Feature", "properties": { "A": "1", "Name": "Waldorfkindergarten - Neugraben", "Straße": "Falkenbergsweg", "Nr.": "48", "PLZ": "21149", "Bezirk": "Harburg", "Nummer": "48" }, "geometry": { "type": "Point", "coordinates": [ 9.865501218404781, 53.465303866114482 ] } },
{ "type": "Feature", "properties": { "A": "1", "Name": "KiTa Volksdorf", "Straße": "Farmsener Landstraße", "Nr.": "69", "PLZ": "22359", "Bezirk": "Wandsbek", "Nummer": "69" }, "geometry": { "type": "Point", "coordinates": [ 10.153136052528501, 53.63881605 ] } },
{ "type": "Feature", "properties": { "A": "1", "Name": "KiTa Flughafenstraße", "Straße": "Flughafenstraße", "Nr.": "89", "PLZ": "22415", "Bezirk": "Wandsbek", "Nummer": "89" }, "geometry": { "type": "Point", "coordinates": [ 10.022231841008509, 53.640704520239623 ] } },
{ "type": "Feature", "properties": { "A": "1", "Name": "Das Märchenhaus", "Straße": "Foorthkamp", "Nr.": "65", "PLZ": "22419", "Bezirk": "Hamburg-Nord", "Nummer": "65" }, "geometry": { "type": "Point", "coordinates": [ 10.0158828308625, 53.66118315 ] } },
{ "type": "Feature", "properties": { "A": "1", "Name": "Elbstrolche", "Straße": "Gammer Weg", "Nr.": "44", "PLZ": "21039", "Bezirk": "Bergedorf", "Nummer": "44" }, "geometry": { "type": "Point", "coordinates": [ 10.2751135072679, 53.4313582 ] } },
{ "type": "Feature", "properties": { "A": "3", "Name": "Pro Seniore Residenz Hamburg", "Straße": "Gazellenkamp", "Nr.": "38", "PLZ": "22529", "Bezirk": "Eimsbüttel", "Nummer": "38" }, "geometry": { "type": "Point", "coordinates": [ 9.94993421043392, 53.600144599396288 ] } },
{ "type": "Feature", "properties": { "A": "4", "Name": "Bethesda Krankenhaus Bergedorf", "Straße": "Glindersweg", "Nr.": "80", "PLZ": "21029", "Bezirk": "Bergedorf", "Nummer": "80" }, "geometry": { "type": "Point", "coordinates": [ 10.235974541918001, 53.48577785 ] } },
{ "type": "Feature", "properties": { "A": "4", "Name": "Wilhelmsburger Krankenhaus Groß-Sand", "Straße": "Groß-Sand", "Nr.": "3", "PLZ": "21107", "Bezirk": "Hamburg-Mitte", "Nummer": "3" }, "geometry": { "type": "Point", "coordinates": [ 9.98617833998401, 53.5036968 ] } },
{ "type": "Feature", "properties": { "A": "3", "Name": "AWO Seniorenzentrum Hagenbeckstraße", "Straße": "Hagenbeckstraße", "Nr.": "12", "PLZ": "22527", "Bezirk": "Eimsbüttel", "Nummer": "12" }, "geometry": { "type": "Point", "coordinates": [ 9.94637676866197, 53.58476285 ] } },
{ "type": "Feature", "properties": { "A": "1", "Name": "KiTa Harburger Berge", "Straße": "Hainholzweg", "Nr.": "124", "PLZ": "21077", "Bezirk": "Harburg", "Nummer": "124" }, "geometry": { "type": "Point", "coordinates": [ 9.928336461040409, 53.45088655 ] } },
{ "type": "Feature", "properties": { "A": "1", "Name": "KiTa Luisito II", "Straße": "Hammer Straße", "Nr.": "36", "PLZ": "22041", "Bezirk": "Wandsbek", "Nummer": "36" }, "geometry": { "type": "Point", "coordinates": [ 10.062626521117201, 53.56765945 ] } },
{ "type": "Feature", "properties": { "A": "1", "Name": "KiTa Hammer Straße", "Straße": "Hammer Straße", "Nr.": "122", "PLZ": "22043", "Bezirk": "Wandsbek", "Nummer": "122" }, "geometry": { "type": "Point", "coordinates": [ 10.065818242296404, 53.563003849481753 ] } },
{ "type": "Feature", "properties": { "A": "1", "Name": "KiTa Am Millerntor", "Straße": "Harald-Stender-Platz", "Nr.": "2", "PLZ": "20359", "Bezirk": "Hamburg-Mitte", "Nummer": "2" }, "geometry": { "type": "Point", "coordinates": [ 9.966430756199671, 53.55340175 ] } },
{ "type": "Feature", "properties": { "A": "1", "Name": "AWO Kita Hasselbrook", "Straße": "Hasselbrookstraße", "Nr.": "164", "PLZ": "22089", "Bezirk": "Wandsbek", "Nummer": "164" }, "geometry": { "type": "Point", "coordinates": [ 10.0552297868864, 53.56485645 ] } },
{ "type": "Feature", "properties": { "A": "1", "Name": "Blümchen", "Straße": "Havighorster Redder", "Nr.": "50", "PLZ": "22115", "Bezirk": "Hamburg-Mitte", "Nummer": "50" }, "geometry": { "type": "Point", "coordinates": [ 10.1490333197066, 53.52714375 ] } },
{ "type": "Feature", "properties": { "A": "1", "Name": "Ev. KiTa der Kirchengemeinde St. Markus\nHoheluft", "Straße": "Heider Straße", "Nr.": "1a", "PLZ": "20251", "Bezirk": "Hamburg-Nord", "Nummer": "1a" }, "geometry": { "type": "Point", "coordinates": [ 9.973712016002278, 53.582020839360212 ] } },
{ "type": "Feature", "properties": { "A": "1", "Name": "KiTa Die Kindsköpfe Mini", "Straße": "Heidlohstraße", "Nr.": "2b", "PLZ": "22459", "Bezirk": "Eimsbüttel", "Nummer": "2b" }, "geometry": { "type": "Point", "coordinates": [ 9.9281939, 53.6294363 ] } },
{ "type": "Feature", "properties": { "A": "3", "Name": "Tagespflege Vierlanden", "Straße": "Heinrich-Stubbe-Weg", "Nr.": "1", "PLZ": "21039", "Bezirk": "Bergedorf", "Nummer": "1" }, "geometry": { "type": "Point", "coordinates": [ 10.230353059507472, 53.445966078580419 ] } },
{ "type": "Feature", "properties": { "A": "1", "Name": "KiTa Im Volkspark", "Straße": "Hellgrundweg", "Nr.": "6", "PLZ": "22525", "Bezirk": "Altona", "Nummer": "6" }, "geometry": { "type": "Point", "coordinates": [ 9.89627494234926, 53.58468535 ] } },
{ "type": "Feature", "properties": { "A": "1", "Name": "KiTa Himmelsstürmer", "Straße": "Heselstücken", "Nr.": "24", "PLZ": "22453", "Bezirk": "Hamburg-Nord", "Nummer": "24" }, "geometry": { "type": "Point", "coordinates": [ 9.9990535, 53.6171783 ] } },
{ "type": "Feature", "properties": { "A": "1", "Name": "Kath. KiGa St. Elisabeth", "Straße": "Hochallee", "Nr.": "61", "PLZ": "20149", "Bezirk": "Eimsbüttel", "Nummer": "61" }, "geometry": { "type": "Point", "coordinates": [ 9.98561687264151, 53.577935 ] } },
{ "type": "Feature", "properties": { "A": "4", "Name": "Agaplesion Diakonieklinikum Hamburg", "Straße": "Hohe Weide", "Nr.": "17", "PLZ": "20259", "Bezirk": "Eimsbüttel", "Nummer": "17" }, "geometry": { "type": "Point", "coordinates": [ 9.965949740339889, 53.571769 ] } },
{ "type": "Feature", "properties": { "A": "1", "Name": "KiTa Paula und Max-Holstenstraße", "Straße": "Holstenstraße", "Nr.": "108", "PLZ": "22767", "Bezirk": "Altona", "Nummer": "108" }, "geometry": { "type": "Point", "coordinates": [ 9.948681149503495, 53.55755037885249 ] } },
{ "type": "Feature", "properties": { "A": "1", "Name": "KiTa Der Kindergarten", "Straße": "Husumer Straße", "Nr.": "31", "PLZ": "20249", "Bezirk": "Hamburg-Nord", "Nummer": "31" }, "geometry": { "type": "Point", "coordinates": [ 9.97956643786898, 53.5873715 ] } },
{ "type": "Feature", "properties": { "A": "1", "Name": "Waldkindergarten Ameisenhaufen", "Straße": "Iland", "Nr.": "52", "PLZ": "22395", "Bezirk": "Wandsbek", "Nummer": "52" }, "geometry": { "type": "Point", "coordinates": [ 10.10994955, 53.6636578 ] } },
{ "type": "Feature", "properties": { "A": "1", "Name": "FRÖBEL-Kindergarten Industriestraße", "Straße": "Industriestraße", "Nr.": "107", "PLZ": "21107", "Bezirk": "Hamburg-Mitte", "Nummer": "107" }, "geometry": { "type": "Point", "coordinates": [ 9.982719750836109, 53.514168077697093 ] } },
{ "type": "Feature", "properties": { "A": "1", "Name": "KiTa im Othmarschen Park", "Straße": "Jürgen-Töpfer-Straße", "Nr.": "17", "PLZ": "22763", "Bezirk": "Altona", "Nummer": "17" }, "geometry": { "type": "Point", "coordinates": [ 9.9023767, 53.5588849 ] } },
{ "type": "Feature", "properties": { "A": "3", "Name": "Domizil zum Husaren", "Straße": "Jüthornstraße", "Nr.": "92", "PLZ": "22043", "Bezirk": "Wandsbek", "Nummer": "92" }, "geometry": { "type": "Point", "coordinates": [ 10.082826247301901, 53.56774945 ] } },
{ "type": "Feature", "properties": { "A": "1", "Name": "KiTa Krümelkiste", "Straße": "Kirchdorfer Straße", "Nr.": "76", "PLZ": "21109", "Bezirk": "Hamburg-Mitte", "Nummer": "76" }, "geometry": { "type": "Point", "coordinates": [ 10.022342761204801, 53.4963415 ] } },
{ "type": "Feature", "properties": { "A": "1", "Name": "KiTa  Elkes Sieben Zwerge", "Straße": "Kirchenheerweg", "Nr.": "103", "PLZ": "21037", "Bezirk": "Bergedorf", "Nummer": "103" }, "geometry": { "type": "Point", "coordinates": [ 10.1997274, 53.4188685 ] } },
{ "type": "Feature", "properties": { "A": "1", "Name": "Ev. KiGa St. Severini Kirchwerder", "Straße": "Kirchenheerweg", "Nr.": "6", "PLZ": "21037", "Bezirk": "Bergedorf", "Nummer": "6" }, "geometry": { "type": "Point", "coordinates": [ 10.1996974543618, 53.4196609 ] } },
{ "type": "Feature", "properties": { "A": "1", "Name": "KiTa Kraueler Hauptdeich", "Straße": "Kraueler Hauptdeich", "Nr.": "73", "PLZ": "21037", "Bezirk": "Bergedorf", "Nummer": "73" }, "geometry": { "type": "Point", "coordinates": [ 10.214993330763001, 53.3993947 ] } },
{ "type": "Feature", "properties": { "A": "1", "Name": "KiTa Kurt-Adams-Platz", "Straße": "Kurt-Adams-Platz", "Nr.": "3", "PLZ": "21031", "Bezirk": "Bergedorf", "Nummer": "3" }, "geometry": { "type": "Point", "coordinates": [ 10.2099617, 53.507832 ] } },
{ "type": "Feature", "properties": { "A": "1", "Name": "Musikkindergarten Hamburg", "Straße": "Lagerstraße", "Nr.": "34a", "PLZ": "20357", "Bezirk": "Hamburg-Mitte", "Nummer": "34a" }, "geometry": { "type": "Point", "coordinates": [ 9.967067058715017, 53.562832461510915 ] } },
{ "type": "Feature", "properties": { "A": "1", "Name": "KiTa Kinderhaus Fledermaus", "Straße": "Lappenbergsallee", "Nr.": "8", "PLZ": "20257", "Bezirk": "Eimsbüttel", "Nummer": "8" }, "geometry": { "type": "Point", "coordinates": [ 9.9482315, 53.5743453 ] } },
{ "type": "Feature", "properties": { "A": "1", "Name": "Ev. KiTa St. Severini Fünfhausen", "Straße": "Lauweg", "Nr.": "16", "PLZ": "21037", "Bezirk": "Bergedorf", "Nummer": "16" }, "geometry": { "type": "Point", "coordinates": [ 10.130585673093501, 53.4464941 ] } },
{ "type": "Feature", "properties": { "A": "1", "Name": "KiTa Kinderparadies Billstedt", "Straße": "Legienstraße", "Nr.": "165", "PLZ": "22111", "Bezirk": "Hamburg-Mitte", "Nummer": "165" }, "geometry": { "type": "Point", "coordinates": [ 10.1015311, 53.551083 ] } },
{ "type": "Feature", "properties": { "A": "2", "Name": "Ida Ehre Schule", "Straße": "Lehmweg", "Nr.": "14", "PLZ": "20251", "Bezirk": "Eimsbüttel", "Nummer": "14" }, "geometry": { "type": "Point", "coordinates": [ 9.97707729546419, 53.58017595 ] } },
{ "type": "Feature", "properties": { "A": "1", "Name": "Kath. KiTa Liliencronstraße", "Straße": "Liliencronstraße", "Nr.": "111", "PLZ": "22149", "Bezirk": "Wandsbek", "Nummer": "111" }, "geometry": { "type": "Point", "coordinates": [ 10.164793606140901, 53.58812625 ] } },
{ "type": "Feature", "properties": { "A": "1", "Name": "Kinderkrippe KiWimäuse", "Straße": "Liliencronstraße", "Nr.": "130", "PLZ": "22149", "Bezirk": "Wandsbek", "Nummer": "130" }, "geometry": { "type": "Point", "coordinates": [ 10.1649951446469, 53.5873149 ] } },
{ "type": "Feature", "properties": { "A": "4", "Name": "Katholisches Kinderkrankenhaus Wilhelmstift", "Straße": "Liliencronstraße", "Nr.": "130", "PLZ": "22149", "Bezirk": "Wandsbek", "Nummer": "130" }, "geometry": { "type": "Point", "coordinates": [ 10.1649951446469, 53.5873149 ] } },
{ "type": "Feature", "properties": { "A": "4", "Name": "Asklepios Klinik St. Georg", "Straße": "Lohmühlenstraße", "Nr.": "5", "PLZ": "20099", "Bezirk": "Hamburg-Mitte", "Nummer": "5" }, "geometry": { "type": "Point", "coordinates": [ 10.018066964323801, 53.55968585 ] } },
{ "type": "Feature", "properties": { "A": "1", "Name": "Waldforscher Kindergarten - Krippenhaus -", "Straße": "Lokstedter Holt", "Nr.": "12", "PLZ": "22453", "Bezirk": "Eimsbüttel", "Nummer": "12" }, "geometry": { "type": "Point", "coordinates": [ 9.9505977, 53.6131651 ] } },
{ "type": "Feature", "properties": { "A": "1", "Name": "KiTa Leuchtkäfer", "Straße": "Ludwig-Rosenberg-Ring", "Nr.": "45", "PLZ": "21031", "Bezirk": "Bergedorf", "Nummer": "45" }, "geometry": { "type": "Point", "coordinates": [ 10.2064772, 53.491238 ] } },
{ "type": "Feature", "properties": { "A": "1", "Name": "KiTa Kinderschlupf", "Straße": "Luisenweg", "Nr.": "10", "PLZ": "20537", "Bezirk": "Hamburg-Mitte", "Nummer": "10" }, "geometry": { "type": "Point", "coordinates": [ 10.0498071, 53.5543147 ] } },
{ "type": "Feature", "properties": { "A": "1", "Name": "Kleine Racker", "Straße": "Maienweg", "Nr.": "302", "PLZ": "22335", "Bezirk": "Hamburg-Nord", "Nummer": "302" }, "geometry": { "type": "Point", "coordinates": [ 10.026688691034799, 53.62473525 ] } },
{ "type": "Feature", "properties": { "A": "1", "Name": "KiTa WABE-Kita Alsterklang", "Straße": "Maienweg", "Nr.": "141", "PLZ": "22297", "Bezirk": "Hamburg-Nord", "Nummer": "141" }, "geometry": { "type": "Point", "coordinates": [ 10.0130636302443, 53.6170302 ] } },
{ "type": "Feature", "properties": { "A": "1", "Name": "KiTa Kleine Füchse III", "Straße": "Maienweg", "Nr.": "289", "PLZ": "22335", "Bezirk": "Hamburg-Nord", "Nummer": "289" }, "geometry": { "type": "Point", "coordinates": [ 10.025791050260301, 53.6235767 ] } },
{ "type": "Feature", "properties": { "A": "1", "Name": "KiTa Alsterberg", "Straße": "Maienweg", "Nr.": "66b", "PLZ": "22297", "Bezirk": "Hamburg-Nord", "Nummer": "66b" }, "geometry": { "type": "Point", "coordinates": [ 10.009160169657463, 53.614804309038803 ] } },
{ "type": "Feature", "properties": { "A": "3", "Name": "PFLEGEN & WOHNEN ALSTERBERG", "Straße": "Maienweg", "Nr.": "145", "PLZ": "22297", "Bezirk": "Hamburg-Nord", "Nummer": "145" }, "geometry": { "type": "Point", "coordinates": [ 10.013208799662101, 53.61738135 ] } },
{ "type": "Feature", "properties": { "A": "1", "Name": "KiGa Maienweg", "Straße": "Maienweg", "Nr.": "272", "PLZ": "22335", "Bezirk": "Hamburg-Nord", "Nummer": "272" }, "geometry": { "type": "Point", "coordinates": [ 10.026417, 53.6229831 ] } },
{ "type": "Feature", "properties": { "A": "1", "Name": "Ev. KiGa im Bereich der Führungsakademie der\nBundeswehr", "Straße": "Manteuffelstraße", "Nr.": "20", "PLZ": "22587", "Bezirk": "Altona", "Nummer": "20" }, "geometry": { "type": "Point", "coordinates": [ 9.8324864, 53.5636385 ] } },
{ "type": "Feature", "properties": { "A": "3", "Name": "Domizil am Hirschpark", "Straße": "Manteuffelstraße", "Nr.": "33", "PLZ": "22587", "Bezirk": "Altona", "Nummer": "33" }, "geometry": { "type": "Point", "coordinates": [ 9.8280343, 53.5611072 ] } },
{ "type": "Feature", "properties": { "A": "1", "Name": "KiTa Maria-Louisen-Straße", "Straße": "Maria-Louisen-Straße", "Nr.": "132", "PLZ": "22301", "Bezirk": "Hamburg-Nord", "Nummer": "132" }, "geometry": { "type": "Point", "coordinates": [ 10.007372953571799, 53.5917973 ] } },
{ "type": "Feature", "properties": { "A": "1", "Name": "KiTa Apoidea favo bambini", "Straße": "Maria-Louisen-Straße", "Nr.": "133", "PLZ": "22301", "Bezirk": "Hamburg-Nord", "Nummer": "133" }, "geometry": { "type": "Point", "coordinates": [ 10.0063751806554, 53.5919633 ] } },
{ "type": "Feature", "properties": { "A": "1", "Name": "Ev. KiTa Jubilate", "Straße": "Merkenstraße", "Nr.": "4", "PLZ": "22117", "Bezirk": "Hamburg-Mitte", "Nummer": "4" }, "geometry": { "type": "Point", "coordinates": [ 10.1279381463935, 53.53949425 ] } },
{ "type": "Feature", "properties": { "A": "1", "Name": "KiTa Mexikoring", "Straße": "Mexikoring", "Nr.": "25", "PLZ": "22297", "Bezirk": "Hamburg-Nord", "Nummer": "25" }, "geometry": { "type": "Point", "coordinates": [ 10.022235157216224, 53.604047115384056 ] } },
{ "type": "Feature", "properties": { "A": "1", "Name": "KiTa Spielpilot", "Straße": "Möllner Landstraße", "Nr.": "86", "PLZ": "22117", "Bezirk": "Hamburg-Mitte", "Nummer": "86" }, "geometry": { "type": "Point", "coordinates": [ 10.1161960456489, 53.53773045 ] } },
{ "type": "Feature", "properties": { "A": "3", "Name": "Annas Tagesbetreuung GmbH", "Straße": "Möllner Landstraße", "Nr.": "35", "PLZ": "22111", "Bezirk": "Hamburg-Mitte", "Nummer": "35" }, "geometry": { "type": "Point", "coordinates": [ 10.107796338558588, 53.539333924769316 ] } },
{ "type": "Feature", "properties": { "A": "3", "Name": "DRK Tagespflege Billstedt", "Straße": "Möllner Landstraße", "Nr.": "154", "PLZ": "22117", "Bezirk": "Hamburg-Mitte", "Nummer": "154" }, "geometry": { "type": "Point", "coordinates": [ 10.1291278291853, 53.5387393 ] } },
{ "type": "Feature", "properties": { "A": "1", "Name": "KiTa Müggenkampstraße", "Straße": "Müggenkampstraße", "Nr.": "61", "PLZ": "20257", "Bezirk": "Eimsbüttel", "Nummer": "61" }, "geometry": { "type": "Point", "coordinates": [ 9.94094410685096, 53.5800294 ] } },
{ "type": "Feature", "properties": { "A": "1", "Name": "KiTa Museumsplatz", "Straße": "Museumsplatz", "Nr.": "1", "PLZ": "21073", "Bezirk": "Harburg", "Nummer": "1" }, "geometry": { "type": "Point", "coordinates": [ 9.977343313866269, 53.4584625 ] } },
{ "type": "Feature", "properties": { "A": "3", "Name": "Seniorenresidenz Harburger Sand", "Straße": "Neue Straße", "Nr.": "26", "PLZ": "21073", "Bezirk": "Harburg", "Nummer": "26" }, "geometry": { "type": "Point", "coordinates": [ 9.9797534, 53.4623444 ] } },
{ "type": "Feature", "properties": { "A": "2", "Name": "Charlotte-Paulsen-Gymnasium", "Straße": "Neumann-Reichardt-Straße", "Nr.": "20", "PLZ": "22041", "Bezirk": "Wandsbek", "Nummer": "20" }, "geometry": { "type": "Point", "coordinates": [ 10.0766027, 53.5723659 ] } },
{ "type": "Feature", "properties": { "A": "1", "Name": "AWO Kita Jonni Birckholtz", "Straße": "Neusurenland", "Nr.": "59", "PLZ": "22159", "Bezirk": "Wandsbek", "Nummer": "59" }, "geometry": { "type": "Point", "coordinates": [ 10.106654301021903, 53.61493121085627 ] } },
{ "type": "Feature", "properties": { "A": "1", "Name": "Ev. KiGa St. Nikolai", "Straße": "Oderfelder Straße", "Nr.": "17", "PLZ": "20149", "Bezirk": "Eimsbüttel", "Nummer": "17" }, "geometry": { "type": "Point", "coordinates": [ 9.98795756229805, 53.5836705 ] } },
{ "type": "Feature", "properties": { "A": "1", "Name": "Ev. KiGa St. Nikolai", "Straße": "Oderfelder Straße", "Nr.": "23", "PLZ": "20149", "Bezirk": "Eimsbüttel", "Nummer": "23" }, "geometry": { "type": "Point", "coordinates": [ 9.987868860516681, 53.5844139 ] } },
{ "type": "Feature", "properties": { "A": "1", "Name": "KiTa Kinderhaus FlieWaTuut", "Straße": "Paul-Sorge-Straße", "Nr.": "108", "PLZ": "22459", "Bezirk": "Eimsbüttel", "Nummer": "108" }, "geometry": { "type": "Point", "coordinates": [ 9.9511649, 53.6311799 ] } },
{ "type": "Feature", "properties": { "A": "1", "Name": "KiTa Elbauenland", "Straße": "Pinneberger Straße", "Nr.": "72", "PLZ": "22457", "Bezirk": "Eimsbüttel", "Nummer": "72" }, "geometry": { "type": "Point", "coordinates": [ 9.90206582321148, 53.63548055 ] } },
{ "type": "Feature", "properties": { "A": "1", "Name": "KiTa Eppiland", "Straße": "Poppenbütteler Weg", "Nr.": "124a", "PLZ": "22399", "Bezirk": "Wandsbek", "Nummer": "124a" }, "geometry": { "type": "Point", "coordinates": [ 10.063938203140999, 53.6490422 ] } },
{ "type": "Feature", "properties": { "A": "3", "Name": "Seniorenresidenz Alsterpark", "Straße": "Rathenaustraße", "Nr.": "4-10", "PLZ": "22297", "Bezirk": "Hamburg-Nord", "Nummer": "4-10" }, "geometry": { "type": "Point", "coordinates": [ 9.998840587060981, 53.60825171075961 ] } },
{ "type": "Feature", "properties": { "A": "1", "Name": "KiTa KiKu Zwergenland", "Straße": "Richardstraße", "Nr.": "16", "PLZ": "22081", "Bezirk": "Hamburg-Nord", "Nummer": "16" }, "geometry": { "type": "Point", "coordinates": [ 10.0344211, 53.572669 ] } },
{ "type": "Feature", "properties": { "A": "2", "Name": "Schule Hasselbrook", "Straße": "Ritterstraße", "Nr.": "44", "PLZ": "22089", "Bezirk": "Wandsbek", "Nummer": "44" }, "geometry": { "type": "Point", "coordinates": [ 10.0443684479312, 53.56452915 ] } },
{ "type": "Feature", "properties": { "A": "1", "Name": "Bewegungskita Ritterstraße", "Straße": "Ritterstraße", "Nr.": "7", "PLZ": "22089", "Bezirk": "Wandsbek", "Nummer": "7" }, "geometry": { "type": "Point", "coordinates": [ 10.045406979655199, 53.568067 ] } },
{ "type": "Feature", "properties": { "A": "1", "Name": "KiTa Tilemann-Hort", "Straße": "Ritterstraße", "Nr.": "29", "PLZ": "22089", "Bezirk": "Wandsbek", "Nummer": "29" }, "geometry": { "type": "Point", "coordinates": [ 10.045374156432, 53.56675335 ] } },
{ "type": "Feature", "properties": { "A": "1", "Name": "KiTa Rodenbeker Straße", "Straße": "Rodenbeker Straße", "Nr.": "28", "PLZ": "22395", "Bezirk": "Wandsbek", "Nummer": "28" }, "geometry": { "type": "Point", "coordinates": [ 10.121909925905999, 53.674755 ] } },
{ "type": "Feature", "properties": { "A": "3", "Name": "Fröhlich Senioren- und Pflegepension GmbH", "Straße": "Rodenbeker Straße", "Nr.": "3-5", "PLZ": "22395", "Bezirk": "Wandsbek", "Nummer": "3-5" }, "geometry": { "type": "Point", "coordinates": [ 10.122966286059835, 53.671891194791712 ] } },
{ "type": "Feature", "properties": { "A": "1", "Name": "KiGa \"Rolfincken\"\"\"", "Straße": "Rolfinckstraße", "Nr.": "6", "PLZ": "22391", "Bezirk": "Wandsbek", "Nummer": "6" }, "geometry": { "type": "Point", "coordinates": [ 10.081556511049101, 53.6409042 ] } },
{ "type": "Feature", "properties": { "A": "1", "Name": "KiTa Rothenbaumchaussee 138", "Straße": "Rothenbaumchaussee", "Nr.": "138", "PLZ": "20149", "Bezirk": "Eimsbüttel", "Nummer": "138" }, "geometry": { "type": "Point", "coordinates": [ 9.98946145460004, 53.57696785 ] } },
{ "type": "Feature", "properties": { "A": "1", "Name": "KiTa Kinderhaus Rothenbaumchaussee", "Straße": "Rothenbaumchaussee", "Nr.": "199", "PLZ": "20149", "Bezirk": "Eimsbüttel", "Nummer": "199" }, "geometry": { "type": "Point", "coordinates": [ 9.98839652537616, 53.57835395 ] } },
{ "type": "Feature", "properties": { "A": "4", "Name": "Asklepios Klinik Barmbek", "Straße": "Rübenkamp", "Nr.": "220", "PLZ": "22307", "Bezirk": "Hamburg-Nord", "Nummer": "220" }, "geometry": { "type": "Point", "coordinates": [ 10.0362700983195, 53.60654655 ] } },
{ "type": "Feature", "properties": { "A": "1", "Name": "KiTa Rübennasen", "Straße": "Rübenkamp", "Nr.": "220", "PLZ": "22307", "Bezirk": "Hamburg-Nord", "Nummer": "220" }, "geometry": { "type": "Point", "coordinates": [ 10.0362700983195, 53.60654655 ] } },
{ "type": "Feature", "properties": { "A": "1", "Name": "Ev. KiTa Nienstedten", "Straße": "Rupertistraße", "Nr.": "47", "PLZ": "22609", "Bezirk": "Altona", "Nummer": "47" }, "geometry": { "type": "Point", "coordinates": [ 9.84099430355495, 53.55499885 ] } },
{ "type": "Feature", "properties": { "A": "1", "Name": "KiTa Kleine Füchse II", "Straße": "Saling", "Nr.": "2", "PLZ": "20535", "Bezirk": "Hamburg-Mitte", "Nummer": "2" }, "geometry": { "type": "Point", "coordinates": [ 10.047540002062194, 53.558912765463738 ] } },
{ "type": "Feature", "properties": { "A": "1", "Name": "KiTa Rasselbande Horn", "Straße": "Sandkamp", "Nr.": "8", "PLZ": "22111", "Bezirk": "Hamburg-Mitte", "Nummer": "8" }, "geometry": { "type": "Point", "coordinates": [ 10.0858158108518, 53.55128925 ] } },
{ "type": "Feature", "properties": { "A": "1", "Name": "40-Füßler", "Straße": "Saseler Straße", "Nr.": "21", "PLZ": "22145", "Bezirk": "Wandsbek", "Nummer": "21" }, "geometry": { "type": "Point", "coordinates": [ 10.1464068, 53.6299825 ] } },
{ "type": "Feature", "properties": { "A": "1", "Name": "Kinderstube", "Straße": "Scheideweg", "Nr.": "1", "PLZ": "20253", "Bezirk": "Eimsbüttel", "Nummer": "1" }, "geometry": { "type": "Point", "coordinates": [ 9.9646059294036, 53.578194 ] } },
{ "type": "Feature", "properties": { "A": "1", "Name": "Die Schanzenschlümpfe", "Straße": "Schulterblatt", "Nr.": "62", "PLZ": "20357", "Bezirk": "Altona", "Nummer": "62" }, "geometry": { "type": "Point", "coordinates": [ 9.9625554, 53.5615668 ] } },
{ "type": "Feature", "properties": { "A": "1", "Name": "KiGa Sierichstraße", "Straße": "Sierichstraße", "Nr.": "177", "PLZ": "22299", "Bezirk": "Hamburg-Nord", "Nummer": "177" }, "geometry": { "type": "Point", "coordinates": [ 9.99724207001409, 53.59288695 ] } },
{ "type": "Feature", "properties": { "A": "1", "Name": "KiTa Hamburger Kinderhafen", "Straße": "Sierichstraße", "Nr.": "183", "PLZ": "22299", "Bezirk": "Hamburg-Nord", "Nummer": "183" }, "geometry": { "type": "Point", "coordinates": [ 9.996907584090319, 53.59303895 ] } },
{ "type": "Feature", "properties": { "A": "1", "Name": "KiTa Sinstorfer Kirchweg", "Straße": "Sinstorfer Kirchweg", "Nr.": "2", "PLZ": "21077", "Bezirk": "Harburg", "Nummer": "2" }, "geometry": { "type": "Point", "coordinates": [ 9.980064546732526, 53.424061349903191 ] } },
{ "type": "Feature", "properties": { "A": "2", "Name": "Lessing-Stadtteilschule", "Straße": "Sinstorfer Weg", "Nr.": "40", "PLZ": "21077", "Bezirk": "Harburg", "Nummer": "40" }, "geometry": { "type": "Point", "coordinates": [ 9.969710611740521, 53.4304471 ] } },
{ "type": "Feature", "properties": { "A": "1", "Name": "KiTa Steilshooper Allee", "Straße": "Steilshooper Allee", "Nr.": "30", "PLZ": "22309", "Bezirk": "Wandsbek", "Nummer": "30" }, "geometry": { "type": "Point", "coordinates": [ 10.0496986743933, 53.60800335 ] } },
{ "type": "Feature", "properties": { "A": "1", "Name": "KiTa Tieloh", "Straße": "Steilshooper Straße", "Nr.": "120", "PLZ": "22305", "Bezirk": "Hamburg-Nord", "Nummer": "120" }, "geometry": { "type": "Point", "coordinates": [ 10.051986339302401, 53.5908685 ] } },
{ "type": "Feature", "properties": { "A": "1", "Name": "KiTa Südring", "Straße": "Südring", "Nr.": "40", "PLZ": "22303", "Bezirk": "Hamburg-Nord", "Nummer": "40" }, "geometry": { "type": "Point", "coordinates": [ 10.0282599, 53.5909235 ] } },
{ "type": "Feature", "properties": { "A": "1", "Name": "Ev. KiTa Sülldorf", "Straße": "Sülldorfer Kirchenweg", "Nr.": "187", "PLZ": "22589", "Bezirk": "Altona", "Nummer": "187" }, "geometry": { "type": "Point", "coordinates": [ 9.79722921106911, 53.57939135 ] } },
{ "type": "Feature", "properties": { "A": "1", "Name": "Ev. KiTa des Albertinen-Diakoniewerkes", "Straße": "Süntelstraße", "Nr.": "11a", "PLZ": "22457", "Bezirk": "Eimsbüttel", "Nummer": "11a" }, "geometry": { "type": "Point", "coordinates": [ 9.9052693, 53.6311975 ] } },
{ "type": "Feature", "properties": { "A": "1", "Name": "KiTa Spatzennest im Valvo-Park", "Straße": "Tarpen", "Nr.": "40", "PLZ": "22419", "Bezirk": "Hamburg-Nord", "Nummer": "40" }, "geometry": { "type": "Point", "coordinates": [ 9.9946436, 53.6657791 ] } },
{ "type": "Feature", "properties": { "A": "1", "Name": "ASB Kita Räuberhöhle", "Straße": "Theodorstraße", "Nr.": "42", "PLZ": "22761", "Bezirk": "Altona", "Nummer": "42" }, "geometry": { "type": "Point", "coordinates": [ 9.8998717, 53.5693667 ] } },
{ "type": "Feature", "properties": { "A": "1", "Name": "KiTa nordvind", "Straße": "Theodorstraße", "Nr.": "42", "PLZ": "22761", "Bezirk": "Altona", "Nummer": "42" }, "geometry": { "type": "Point", "coordinates": [ 9.8998717, 53.5693667 ] } },
{ "type": "Feature", "properties": { "A": "3", "Name": "Parkdomizil am Bahrenfelder See", "Straße": "Theodorstraße", "Nr.": "30", "PLZ": "22761", "Bezirk": "Altona", "Nummer": "30" }, "geometry": { "type": "Point", "coordinates": [ 9.898732757220859, 53.5683628 ] } },
{ "type": "Feature", "properties": { "A": "1", "Name": "KiTa Vierländer", "Straße": "Vierländer Damm", "Nr.": "86", "PLZ": "20539", "Bezirk": "Hamburg-Mitte", "Nummer": "86" }, "geometry": { "type": "Point", "coordinates": [ 10.0485601, 53.5325591 ] } },
{ "type": "Feature", "properties": { "A": "1", "Name": "Ev. KiGa Bergstedt", "Straße": "Volksdorfer Damm", "Nr.": "268a", "PLZ": "22395", "Bezirk": "Wandsbek", "Nummer": "268a" }, "geometry": { "type": "Point", "coordinates": [ 10.126472269357301, 53.6718326 ] } },
{ "type": "Feature", "properties": { "A": "2", "Name": "Stadtteilschule Lurup", "Straße": "Vorhornweg", "Nr.": "2", "PLZ": "22547", "Bezirk": "Altona", "Nummer": "2" }, "geometry": { "type": "Point", "coordinates": [ 9.882863359443519, 53.590486930778738 ] } },
{ "type": "Feature", "properties": { "A": "1", "Name": "KiTa Pünktchens Tintenklecks", "Straße": "Waidmannstraße", "Nr.": "8c", "PLZ": "22769", "Bezirk": "Altona", "Nummer": "8c" }, "geometry": { "type": "Point", "coordinates": [ 9.942903721963919, 53.569463749238714 ] } },
{ "type": "Feature", "properties": { "A": "1", "Name": "KiTa Piggeldy", "Straße": "Walddörferstraße", "Nr.": "27", "PLZ": "22041", "Bezirk": "Wandsbek", "Nummer": "27" }, "geometry": { "type": "Point", "coordinates": [ 10.0673365, 53.5790355 ] } },
{ "type": "Feature", "properties": { "A": "1", "Name": "KiTa Krippe Fliegenpilze", "Straße": "Weidenallee", "Nr.": "44", "PLZ": "20357", "Bezirk": "Eimsbüttel", "Nummer": "44" }, "geometry": { "type": "Point", "coordinates": [ 9.964667447939901, 53.56822305 ] } },
{ "type": "Feature", "properties": { "A": "1", "Name": "KiTa Kinderhaus Weidenallee", "Straße": "Weidenallee", "Nr.": "22a", "PLZ": "20357", "Bezirk": "Eimsbüttel", "Nummer": "22a" }, "geometry": { "type": "Point", "coordinates": [ 9.965234272633898, 53.567369002746815 ] } },
{ "type": "Feature", "properties": { "A": "1", "Name": "KiTa Kinderladen Bambino", "Straße": "Weidenallee", "Nr.": "37", "PLZ": "20357", "Bezirk": "Eimsbüttel", "Nummer": "37" }, "geometry": { "type": "Point", "coordinates": [ 9.964581117120691, 53.5671614 ] } },
{ "type": "Feature", "properties": { "A": "1", "Name": "KiTa Flohkiste", "Straße": "Weidestraße", "Nr.": "126", "PLZ": "22083", "Bezirk": "Hamburg-Nord", "Nummer": "126" }, "geometry": { "type": "Point", "coordinates": [ 10.0249304, 53.5810734 ] } },
{ "type": "Feature", "properties": { "A": "1", "Name": "KiTa Flohkiste II", "Straße": "Weidestraße", "Nr.": "126", "PLZ": "22083", "Bezirk": "Hamburg-Nord", "Nummer": "126" }, "geometry": { "type": "Point", "coordinates": [ 10.0249304, 53.5810734 ] } },
{ "type": "Feature", "properties": { "A": "1", "Name": "KiTa Natur-Kinderladen Pinocchio", "Straße": "Wellingsbütteler Landstraße", "Nr.": "223", "PLZ": "22337", "Bezirk": "Hamburg-Nord", "Nummer": "223" }, "geometry": { "type": "Point", "coordinates": [ 10.05133477410125, 53.635101895112641 ] } },
{ "type": "Feature", "properties": { "A": "3", "Name": "Haus Alstertal", "Straße": "Wellingsbütteler Landstraße", "Nr.": "217", "PLZ": "22337", "Bezirk": "Hamburg-Nord", "Nummer": "217" }, "geometry": { "type": "Point", "coordinates": [ 10.050961312337201, 53.63506255 ] } },
{ "type": "Feature", "properties": { "A": "3", "Name": "Alsterdomizil", "Straße": "Wellingsbüttler Weg", "Nr.": "71", "PLZ": "22391", "Bezirk": "Wandsbek", "Nummer": "71" }, "geometry": { "type": "Point", "coordinates": [ 10.0715697, 53.6429591 ] } },
{ "type": "Feature", "properties": { "A": "3", "Name": "Alsterdomizil - Herrenhaus -", "Straße": "Wellingsbüttler Weg", "Nr.": "71", "PLZ": "22391", "Bezirk": "Wandsbek", "Nummer": "71" }, "geometry": { "type": "Point", "coordinates": [ 10.0715697, 53.6429591 ] } },
{ "type": "Feature", "properties": { "A": "2", "Name": "Heilwig-Gymnasium", "Straße": "Wilhelm-Metzger-Straße", "Nr.": "4", "PLZ": "22297", "Bezirk": "Hamburg-Nord", "Nummer": "4" }, "geometry": { "type": "Point", "coordinates": [ 9.99920990973334, 53.60569305 ] } },
{ "type": "Feature", "properties": { "A": "3", "Name": "Senioren- & Pflegeheim Margarethenhof GmbH", "Straße": "Wohldorfer Damm", "Nr.": "156", "PLZ": "22395", "Bezirk": "Wandsbek", "Nummer": "156" }, "geometry": { "type": "Point", "coordinates": [ 10.130433061683613, 53.684925614754917 ] } },
{ "type": "Feature", "properties": { "A": "1", "Name": "KiTa CompanyKids Hafencity Hamburg", "Straße": "Yokohamastraße", "Nr.": "1", "PLZ": "20457", "Bezirk": "Hamburg-Mitte", "Nummer": "1" }, "geometry": { "type": "Point", "coordinates": [ 10.003356878439051, 53.542167912868869 ] } },
{ "type": "Feature", "properties": { "A": "1", "Name": "KiTa  Kinderzimmer Lohsepark", "Straße": "Yokohamastraße", "Nr.": "4", "PLZ": "20457", "Bezirk": "Hamburg-Mitte", "Nummer": "4" }, "geometry": { "type": "Point", "coordinates": [ 10.004004202699671, 53.542299517557524 ] } },
{ "type": "Feature", "properties": { "A": "1", "Name": "KiTa Kinderzimmer Astraturm", "Straße": "Zirkusweg", "Nr.": "2", "PLZ": "20359", "Bezirk": "Hamburg-Mitte", "Nummer": "2" }, "geometry": { "type": "Point", "coordinates": [ 9.965411163688293, 53.547390562482164 ] } },
{ "type": "Feature", "properties": { "A": "4", "Name": "Klinik Fleetinsel Hamburg", "Straße": "Admiralitätstraße", "Nr.": "4", "PLZ": "20459", "Bezirk": "Hamburg-Mitte", "Nummer": "4" }, "geometry": { "type": "Point", "coordinates": [ 9.985244788554658, 53.548627836673219 ] } }
]
}
